[{"OBJECT_NAME":"STARLINK-4498","OBJECT_ID":"2022-097AY","EPOCH":"2026-03-09T19:05:00.629088","MEAN_MOTION":15.08843577,"ECCENTRICITY":0.00012961,"INCLINATION":53.2166,"RA_OF_ASC_NODE":103.3697,"ARG_OF_PERICENTER":90.4558,"MEAN_ANOMALY":269.6582,"EPHEMERIS_TYPE":0,"CLASSIFICATION_TYPE":"U","NORAD_CAT_ID":53434,"ELEMENT_SET_NO":999,"REV_AT_EPOCH":19881,"BSTAR":8.97557e-5,"MEAN_MOTION_DOT":1.141e-5,"MEAN_MOTION_DDOT":0},{"OBJECT_NAME":"OBJECT D","OBJECT_ID":"2025-013D","EPOCH":"2026-03-09T22:45:56.369376","MEAN_MOTION":15.10588544,"ECCENTRICITY":0.0008827,"INCLINATION":97.6457,"RA_OF_ASC_NODE":238.3603,"ARG_OF_PERICENTER":18.3993,"MEAN_ANOMALY":341.7554,"EPHEMERIS_TYPE":0,"CLASSIFICATION_TYPE":"U","NORAD_CAT_ID":62732,"ELEMENT_SET_NO":999,"REV_AT_EPOCH":6229,"BSTAR":0.00036300228,"MEAN_MOTION_DOT":5.935e-5,"MEAN_MOTION_DDOT":0}]
